NORAD_CAT_ID,OBJECT_NAME,OBJECT_TYPE,EPOCH,MEAN_MOTION,ECCENTRICITY,INCLINATION,RA_OF_ASC_NODE,ARG_OF_PERICENTER,MEAN_ANOMALY,BSTAR,MEAN_MOTION_DOT,MEAN_MOTION_DDOT,TLE_LINE0,TLE_LINE1,TLE_LINE2,SEMIMAJOR_AXIS,PERIOD,APOGEE,PERIGEE,DECAYED
50204.0,STARLINK-3254,PAYLOAD,2022-01-28 22:00:00,15.73212553,0.0002024,53.2148,160.6871,26.6567,13.8684,9.4717e-05,0.000127,0.0,0 STARLINK-3254,1 50204U 21125BA  22028.91667824  .00012700  00000-0  94717-4 0  9991,2 50204  53.2148 160.6871 0002024  26.6567  13.8684 15.73212553  6735,6727.859,91.532,351.086,348.36300000000006,0.0
50204.0,STARLINK-3254,PAYLOAD,2022-01-29 14:00:01,15.73225245,0.0002149,53.2154,157.3876,33.5519,184.8518,-0.00023245,-0.00033154,0.0,0 STARLINK-3254,1 50204U 21125BA  22029.58334491 -.00033154  00000-0 -23245-3 0  9991,2 50204  53.2154 157.3876 0002149  33.5519 184.8518 15.73225245  6841,6727.823,91.532,351.134,348.242,0.0
50204.0,STARLINK-3254,PAYLOAD,2022-01-29 22:00:00,15.73202242,0.0002185,53.2151,155.7382,28.6682,278.6981,8.546899999999999e-05,0.00011392,0.0,0 STARLINK-3254,1 50204U 21125BA  22029.91667824  .00011392  00000-0  85469-4 0  9992,2 50204  53.2151 155.7382 0002185  28.6682 278.6981 15.73202242  3708,6727.889,91.533,351.224,348.284,0.0
50204.0,STARLINK-3254,PAYLOAD,2022-01-30 06:00:00,15.73223411,0.0002025,53.2153,154.0869,33.1848,3.1135,-7.5208e-05,-0.00011174,0.0,0 STARLINK-3254,1 50204U 21125BA  22030.25001157 -.00011174  00000-0 -75208-4 0  9992,2 50204  53.2153 154.0869 0002025  33.1848   3.1135 15.73223411  6942,6727.828,91.532,351.056,348.331,0.0
50204.0,STARLINK-3254,PAYLOAD,2022-01-30 14:00:01,15.73199135,0.0002262,53.2156,152.4393,33.6101,91.6368,-0.00016827,-0.00024171,0.0,0 STARLINK-3254,1 50204U 21125BA  22030.58334491 -.00024171  00000-0 -16827-3 0  9990,2 50204  53.2156 152.4393 0002262  33.6101  91.6368 15.73199135  3693,6727.898,91.533,351.284,348.241,0.0
50204.0,STARLINK-3254,PAYLOAD,2022-01-30 22:00:00,15.73182779,0.0002283,53.2158,150.7898,28.9364,185.2281,-0.0001064,-0.00015517,0.0,0 STARLINK-3254,1 50204U 21125BA  22030.91667824 -.00015517  00000-0 -10640-3 0  9997,2 50204  53.2158 150.7898 0002283  28.9364 185.2281 15.73182779  7051,6727.944,91.534,351.345,348.273,0.0
50204.0,STARLINK-3254,PAYLOAD,2022-01-31 14:00:01,15.73227078,0.000239,53.2165,147.491,28.8771,3.1531,-9.4939e-05,-0.00013941,0.0,0 STARLINK-3254,1 50204U 21125BA  22031.58335648 -.00013941  00000-0 -94939-4 0  9990,2 50204  53.2165 147.4910 0002390  28.8771   3.1531 15.73227078  7156,6727.818,91.532,351.291,348.075,0.0
50204.0,STARLINK-3254,PAYLOAD,2022-01-31 22:00:01,15.7323207,0.0002318,53.2161,145.8413,23.6215,97.3686,-0.000493,-0.00069347,0.0,0 STARLINK-3254,1 50204U 21125BA  22031.91668981 -.00069347  00000-0 -49300-3 0  9998,2 50204  53.2161 145.8413 0002318  23.6215  97.3686 15.73232070  3686,6727.804,91.531,351.228,348.1090000000001,0.0
50204.0,STARLINK-3254,PAYLOAD,2022-02-01 14:00:01,15.73189275,0.0002324,53.2163,142.543,20.8767,277.969,0.00019755,0.00027183,0.0,0 STARLINK-3254,1 50204U 21125BA  22032.58335648  .00027183  00000-0  19755-3 0  9994,2 50204  53.2163 142.5430 0002324  20.8767 277.9690 15.73189275  3677,6727.926,91.534,351.35400000000016,348.227,0.0
50204.0,STARLINK-3254,PAYLOAD,2022-02-01 22:00:00,15.73246998,0.0002396,53.2165,140.8932,20.9743,6.727,-0.00071176,-0.00099555,0.0,0 STARLINK-3254,1 50204U 21125BA  22032.91667824 -.00099555  00000-0 -71176-3 0  9994,2 50204  53.2165 140.8932 0002396  20.9743   6.7270 15.73246998  7369,6727.761,91.53,351.23800000000006,348.014,0.0
50204.0,STARLINK-3254,PAYLOAD,2022-02-02 14:00:01,15.73148268,0.0002582,53.217,137.5948,22.5448,182.9825,0.0002568,0.00035496,0.0,0 STARLINK-3254,1 50204U 21125BA  22033.58334491  .00035496  00000-0  25680-3 0  9990,2 50204  53.2170 137.5948 0002582  22.5448 182.9825 15.73148268  7478,6728.043000000002,91.536,351.645,348.17,0.0
50204.0,STARLINK-3254,PAYLOAD,2022-02-02 22:00:00,15.73129601,0.0002263,53.2171,135.9333,26.2082,268.1412,0.00086702,0.00122485,0.0,0 STARLINK-3254,1 50204U 21125BA  22033.91667824  .00122485  00000-0  86702-3 0  9993,2 50204  53.2171 135.9333 0002263  26.2082 268.1412 15.73129601  7525,6728.096,91.537,351.483,348.43800000000016,0.0
50204.0,STARLINK-3254,PAYLOAD,2022-02-03 14:00:01,15.73204824,0.0002785,53.2165,132.6469,26.4502,85.7593,0.00026894,0.00037303,0.0,0 STARLINK-3254,1 50204U 21125BA  22034.58334491  .00037303  00000-0  26894-3 0  9998,2 50204  53.2165 132.6469 0002785  26.4502  85.7593 15.73204824  7636,6727.880999999999,91.533,351.62,347.87300000000016,0.0
50204.0,STARLINK-3254,PAYLOAD,2022-02-03 22:00:01,15.73304826,0.000274,53.2165,130.9964,24.8696,176.3715,-0.00049183,-0.00069405,0.0,0 STARLINK-3254,1 50204U 21125BA  22034.91668981 -.00069405  00000-0 -49183-3 0  9995,2 50204  53.2165 130.9964 0002740  24.8696 176.3715 15.73304826  7685,6727.596,91.527,351.305,347.61800000000005,0.0
50204.0,STARLINK-3254,PAYLOAD,2022-02-04 06:00:00,15.73239586,0.0002607,53.2169,129.3453,24.5941,265.6216,0.00056792,0.0007999,0.0,0 STARLINK-3254,1 50204U 21125BA  22035.25001157  .00079990  00000-0  56792-3 0  9991,2 50204  53.2169 129.3453 0002607  24.5941 265.6216 15.73239586  7730,6727.781999999997,91.531,351.401,347.89300000000014,0.0
50204.0,STARLINK-3254,PAYLOAD,2022-02-04 14:00:01,15.73234108,0.0002771,53.2168,127.6978,17.0465,2.193,-0.00035927,-0.00050824,0.0,0 STARLINK-3254,1 50204U 21125BA  22035.58335648 -.00050824  00000-0 -35927-3 0  9996,2 50204  53.2168 127.6978 0002771  17.0465   2.1930 15.73234108  7789,6727.7980000000025,91.531,351.527,347.7990000000001,0.0
50204.0,STARLINK-3254,PAYLOAD,2022-02-04 22:00:00,15.73211021,0.0002715,53.2164,126.0473,14.9653,93.1527,0.00012345,0.00016748,0.0,0 STARLINK-3254,1 50204U 21125BA  22035.91667824  .00016748  00000-0  12345-3 0  9991,2 50204  53.2164 126.0473 0002715  14.9653  93.1527 15.73211021  3698,6727.864000000001,91.533,351.555,347.902,0.0
50204.0,STARLINK-3254,PAYLOAD,2022-02-05 06:00:00,15.73284056,0.0002574,53.2164,124.3968,19.6336,177.4545,-0.00019007,-0.00027312,0.0,0 STARLINK-3254,1 50204U 21125BA  22036.25001157 -.00027312  00000-0 -19007-3 0  9993,2 50204  53.2164 124.3968 0002574  19.6336 177.4545 15.73284056  7891,6727.656,91.528,351.25199999999984,347.789,0.0
50204.0,STARLINK-3254,PAYLOAD,2022-02-05 14:00:01,15.73245301,0.0002878999999999,53.2163,122.7493,17.0485,269.0633,-0.00037276,-0.00052724,0.0,0 STARLINK-3254,1 50204U 21125BA  22036.58334491 -.00052724  00000-0 -37276-3 0  9992,2 50204  53.2163 122.7493 0002879  17.0485 269.0633 15.73245301  3690,6727.766,91.531,351.5680000000001,347.694,0.0
50204.0,STARLINK-3254,PAYLOAD,2022-02-05 22:00:01,15.73221825,0.0002713,53.2163,121.0983,10.707,4.4139,-0.00098014,-0.00136135,0.0,0 STARLINK-3254,1 50204U 21125BA  22036.91668981 -.00136135  00000-0 -98014-3 0  9999,2 50204  53.2163 121.0983 0002713  10.7070   4.4139 15.73221825  7997,6727.833000000001,91.532,351.523,347.87300000000016,0.0
50204.0,STARLINK-3254,PAYLOAD,2022-02-06 14:00:01,15.73062427,0.0003058999999999,53.2167,117.8007,14.0764,178.7473,0.00046365,0.00064578,0.0,0 STARLINK-3254,1 50204U 21125BA  22037.58335648  .00064578  00000-0  46365-3 0  9995,2 50204  53.2167 117.8007 0003059  14.0764 178.7473 15.73062427  8103,6728.2869999999975,91.541,352.211,348.094,0.0
50204.0,STARLINK-3254,PAYLOAD,2022-02-06 22:00:00,15.73092891,0.0002928,53.2163,116.1501,13.1362,268.4123,0.00083855,0.00118204,0.0,0 STARLINK-3254,1 50204U 21125BA  22037.91667824  .00118204  00000-0  83855-3 0  9997,2 50204  53.2163 116.1501 0002928  13.1362 268.4123 15.73092891  3694,6728.201,91.539,352.036,348.096,0.0
50204.0,STARLINK-3254,PAYLOAD,2022-02-07 06:00:00,15.73213113,0.0002817,53.2164,114.5003,12.3103,358.0766,0.00030461,0.00042374,0.0,0 STARLINK-3254,1 50204U 21125BA  22038.25001157  .00042374  00000-0  30461-3 0  9995,2 50204  53.2164 114.5003 0002817  12.3103 358.0766 15.73213113  8208,6727.858,91.532,351.61800000000005,347.82800000000015,0.0
50204.0,STARLINK-3254,PAYLOAD,2022-02-07 14:00:01,15.73215265,0.0003107,53.2163,112.8528,11.739,87.6062,0.0005195,0.00072984,0.0,0 STARLINK-3254,1 50204U 21125BA  22038.58334491  .00072984  00000-0  51950-3 0  9997,2 50204  53.2163 112.8528 0003107  11.7390  87.6062 15.73215265  3696,6727.852,91.532,351.807,347.626,0.0
50204.0,STARLINK-3254,PAYLOAD,2022-02-07 22:00:00,15.73302855,0.0002981,53.2164,111.2016,11.3395,176.9758,-0.00051807,-0.00073041,0.0,0 STARLINK-3254,1 50204U 21125BA  22038.91667824 -.00073041  00000-0 -51807-3 0  9991,2 50204  53.2164 111.2016 0002981  11.3395 176.9758 15.73302855  3698,6727.602,91.527,351.472,347.461,0.0
50204.0,STARLINK-3254,PAYLOAD,2022-02-08 06:00:00,15.7327138,0.0002958,53.2168,109.5514,13.3898,263.9378,-0.0005449,-0.00076656,0.0,0 STARLINK-3254,1 50204U 21125BA  22039.25001157 -.00076656  00000-0 -54490-3 0  9996,2 50204  53.2168 109.5514 0002958  13.3898 263.9378 15.73271380  8361,6727.691999999999,91.529,351.547,347.56699999999995,0.0
50204.0,STARLINK-3254,PAYLOAD,2022-02-08 14:00:01,15.73177724,0.0003335,53.2169,107.9038,15.1798,351.1372,0.00053854,0.00075586,0.0,0 STARLINK-3254,1 50204U 21125BA  22039.58334491  .00075586  00000-0  53854-3 0  9994,2 50204  53.2169 107.9038 0003335  15.1798 351.1372 15.73177724  3708,6727.959,91.534,352.06699999999995,347.58,0.0
50204.0,STARLINK-3254,PAYLOAD,2022-02-08 22:00:01,15.7324636,0.000319,53.2167,106.2525,15.0284,80.2884,-4.0846e-05,-6.365e-05,0.0,0 STARLINK-3254,1 50204U 21125BA  22039.91668981 -.00006365  00000-0 -40846-4 0  9994,2 50204  53.2167 106.2525 0003190  15.0284  80.2884 15.73246360  8466,6727.763000000001,91.53,351.774,347.482,0.0
50204.0,STARLINK-3254,PAYLOAD,2022-02-09 12:50:37,15.73236591,0.0003247,53.2168,103.1918,14.0669,346.0441,0.00012759,0.00017352,0.0,0 STARLINK-3254,1 50204U 21125BA  22040.53515692  .00017352  00000-0  12759-3 0  9991,2 50204  53.2168 103.1918 0003247  14.0669 346.0441 15.73236591 11706,6727.791,91.531,351.84,347.471,0.0
